{
  "norad_id": 41188,
  "name": "ORBCOMM FM117",
  "history": [
    {
      "epoch": "2026-03-28T17:02:11.409792",
      "apogee_km": 699.6953673656017,
      "perigee_km": 694.6219558584862,
      "latitude_deg": -4.981834742719391,
      "longitude_deg": 166.94601087993942,
      "semi_major_axis_km": 7075.295661612044,
      "eccentricity": 0.00035853,
      "inclination_deg": 47.0008,
      "raan_deg": 201.3189,
      "arg_perigee_deg": 205.3094,
      "mean_anomaly_deg": 154.7617,
      "mean_motion_rev_day": 14.58766807
    }
  ]
}